IRIDIUM 155             
1 43573U 18061E   19079.48886848  .00000060  00000-0  14312-4 0  9999
2 43573  86.3924  82.3803 0002360  70.0967 290.0482 14.34216603 34158
IRIDIUM 154             
1 43574U 18061F   19079.53960995  .00000064  00000-0  15949-4 0  9993
2 43574  86.3926  82.3675 0002465  96.8933 263.2544 14.34217041 34207
IRIDIUM 163             
1 43575U 18061G   19078.47405703  .00000060  00000-0  14531-4 0  9999
2 43575  86.3924  82.8087 0001576 105.6972 254.4398 14.34218413 34025
IRIDIUM 156             
1 43576U 18061H   19079.49521832  .00000060  00000-0  14336-4 0  9998
2 43576  86.3924  82.3858 0001806  83.8553 276.2848 14.34216392 34155
IRIDIUM 164             
1 43577U 18061J   19078.56921609  .00000067  00000-0  16726-4 0  9994
2 43577  86.3924  82.7734 0002206  96.7548 263.3899 14.34217272 34077
IRIDIUM 159             
1 43578U 18061K   19078.46770818  .00000057  00000-0  13163-4 0  9999
2 43578  86.3923  82.8082 0002307  94.3565 265.7894 14.34216948 34024
IRIDIUM 180             
1 43922U 19002A   19078.25790142  .00000051  00000-0  11061-4 0  9996
2 43922  86.4014  19.7090 0002598 119.3289 240.8167 14.34219090  9648
IRIDIUM 176             
1 43923U 19002B   19078.36049081  .00000119  00000-0  14882-4 0  9997
2 43923  86.6147  19.6814 0002108  83.9636 276.1822 14.72248394  9821
IRIDIUM 168             
1 43924U 19002C   19078.32134104  .00000049  00000-0  10603-4 0  9994
2 43924  86.4016  19.6850 0002344  94.8786 265.2677 14.34217303  9599
IRIDIUM 173             
1 43925U 19002D   19079.28541534  .00000047  00000-0  96321-5 0  9990
2 43925  86.4014  19.2787 0002221  91.0628 269.0822 14.34217519  9729
IRIDIUM 169             
1 43926U 19002E   19079.28144266  .00000051  00000-0  10663-4 0  9991
2 43926  87.4081  24.1888 0004745  64.1997 295.9691 14.38613653  9821
IRIDIUM 172             
1 43927U 19002F   19079.27905482  .00000063  00000-0  15565-4 0  9995
2 43927  86.4014  19.2809 0002265  96.2870 263.8584 14.34219314  9722
IRIDIUM 175             
1 43928U 19002G   19078.76211913  .00000119  00000-0  14970-4 0  9999
2 43928  86.6132  19.4954 0003463  75.0243 285.1357 14.72258580  9870
IRIDIUM 171             
1 43929U 19002H   19079.26004286  .00000049  00000-0  10474-4 0  9996
2 43929  86.4023  19.3011 0002338  92.9487 267.1976 14.34218309  9712
IRIDIUM 170             
1 43930U 19002J   19078.36666444  .00000125  00000-0  15913-4 0  9996
2 43930  86.6147  19.6867 0002450  74.6896 285.4591 14.72248437  9837
IRIDIUM 167             
1 43931U 19002K   19078.48624531  .00000045  00000-0  91017-5 0  9992
2 43931  86.4014  19.6113 0002629 114.1375 246.0096 14.34217499  9603
